H1 CPF  1  MCC 2022  8 16 12  7281 larets
H2  0304206 5557    27944 2022 08 15 23 45 00 2022 08 20 23 57 00   180 1 1  0 0 0
H9
10 0 59809 10620.000000 0      6649473.053     -1651029.583      1701280.407
10 0 59809 10800.000000 0      6142230.341     -1815730.188      2960212.567
10 0 59809 10980.000000 0      5407639.540     -1897878.181      4110345.728
10 0 59809 11160.000000 0      4474713.084     -1888864.724      5109358.972
10 0 59809 11340.000000 0      3379939.424     -1784285.450      5920507.627
10 0 59809 11520.000000 0      2165799.682     -1584271.467      6513986.124
10 0 59809 11700.000000 0       879065.690     -1293611.525      6868011.863
10 0 59809 11880.000000 0      -431042.934      -921659.463      6969604.759
10 0 59809 12060.000000 0     -1714768.426      -482028.951      6815042.059
10 0 59809 12240.000000 0     -2923719.772         7911.317      6409986.671
10 0 59809 12420.000000 0     -4012714.024       527726.933      5769290.776
10 0 59809 12600.000000 0     -4941496.989      1054766.953      4916473.667
10 0 59809 12780.000000 0     -5676278.637      1565142.418      3882877.663
10 0 59809 12960.000000 0     -6191016.037      2034795.695      2706521.767
10 0 59809 13140.000000 0     -6468385.450      2440611.294      1430691.377
10 0 59809 13320.000000 0     -6500399.952      2761515.216       102311.378
10 0 59809 13500.000000 0     -6288632.407      2979504.690     -1229834.562
10 0 59809 13680.000000 0     -5844032.465      3080551.598     -2516952.826
10 0 59809 13860.000000 0     -5186351.104      3055334.822     -3712073.861
10 0 59809 14040.000000 0     -4343207.628      2899762.669     -4771784.236
10 0 59809 14220.000000 0     -3348863.121      2615265.410     -5657780.901
10 0 59809 14400.000000 0     -2242775.413      2208852.938     -6338194.913
10 0 59809 14580.000000 0     -1068008.592      1692943.812     -6788658.599
10 0 59809 14760.000000 0       130438.822      1084974.888     -6993092.940
10 0 59809 14940.000000 0      1307319.147       406812.933     -6944213.320
10 0 59809 15120.000000 0      2418793.648      -316013.702     -6643760.606
10 0 59809 15300.000000 0      3424019.826     -1055246.632     -6102446.700
10 0 59809 15480.000000 0      4286621.649     -1780964.215     -5339618.277
10 0 59809 15660.000000 0      4976005.072     -2462757.517     -4382642.039
10 0 59809 15840.000000 0      5468476.165     -3070982.430     -3266007.003
10 0 59809 16020.000000 0      5748112.990     -3578035.786     -2030153.913
10 0 59809 16200.000000 0      5807347.579     -3959600.059      -720054.167
10 0 59809 16380.000000 0      5647218.119     -4195796.263       616417.911
10 0 59809 16560.000000 0      5277267.687     -4272183.124      1930261.044
10 0 59809 16740.000000 0      4715080.736     -4180541.617      3173196.399
10 0 59809 16920.000000 0      3985478.378     -3919394.355      4299498.113
10 0 59809 17100.000000 0      3119417.917     -3494237.960      5267723.330
10 0 59809 17280.000000 0      2152649.182     -2917472.114      6042266.613
10 0 59809 17460.000000 0      1124201.990     -2208030.026      6594674.710
10 0 59809 17640.000000 0        74775.877     -1390732.863      6904677.253
10 0 59809 17820.000000 0      -954894.696      -495396.923      6960908.330
10 0 59809 18000.000000 0     -1925635.580       444273.756      6761306.113
10 0 59809 18180.000000 0     -2801335.670      1391969.819      6313185.150
10 0 59809 18360.000000 0     -3550306.915      2310190.801      5632979.445
10 0 59809 18540.000000 0     -4146456.879      3161743.714      4745662.194
10 0 59809 18720.000000 0     -4570231.606      3911272.533      3683847.751
10 0 59809 18900.000000 0     -4809287.888      4526752.683      2486597.284
10 0 59809 19080.000000 0     -4858860.618      4980885.219      1197965.127
10 0 59809 19260.000000 0     -4721804.741      5252317.667      -134662.228
10 0 59809 19440.000000 0     -4408313.854      5326625.578     -1462362.281
10 0 59809 19620.000000 0     -3935324.066      5197005.713     -2736533.352
10 0 59809 19800.000000 0     -3325636.199      4864639.850     -3910716.451
10 0 59809 19980.000000 0     -2606814.929      4338719.052     -4942298.626
10 0 59809 20160.000000 0     -1809930.859      3636142.216     -5794025.024
10 0 59809 20340.000000 0      -968215.347      2780921.177     -6435280.550
10 0 59809 20520.000000 0      -115684.411      1803317.620     -6843112.012
10 0 59809 20700.000000 0       714209.563       738756.109     -7002966.822
10 0 59809 20880.000000 0      1489852.208      -373443.677     -6909152.324
10 0 59809 21060.000000 0      2182634.831     -1491482.396     -6565011.845
10 0 59809 21240.000000 0      2767979.361     -2572602.737     -5982818.098
10 0 59809 21420.000000 0      3226199.019     -3574679.351     -5183392.068
10 0 59809 21600.000000 0      3543171.372     -4457842.782     -4195437.590
10 0 59809 21780.000000 0      3710791.035     -5186069.576     -3054589.281
10 0 59809 21960.000000 0      3727188.294     -5728682.689     -1802200.445
10 0 59809 22140.000000 0      3596695.053     -6061695.581      -483882.744
10 0 59809 22320.000000 0      3329547.961     -6168920.456       852155.605
10 0 59809 22500.000000 0      2941334.436     -6042775.087      2156905.807
10 0 59809 22680.000000 0      2452207.526     -5684736.014      3382412.064
10 0 59809 22860.000000 0      1885904.813     -5105405.367      4483589.945
10 0 59809 23040.000000 0      1268629.283     -4324194.781      5419927.298
10 0 59809 23220.000000 0       627850.499     -3368639.922      6157000.791
10 0 59809 23400.000000 0        -8918.064     -2273376.881      6667743.556
10 0 59809 23580.000000 0      -615301.853     -1078839.367      6933417.798
10 0 59809 23760.000000 0     -1167158.237       170265.511      6944282.253
10 0 59809 23940.000000 0     -1643541.964      1426655.244      6699938.082
10 0 59809 24120.000000 0     -2027507.724      2642280.397      6209341.786
10 0 59809 24300.000000 0     -2306722.455      3770181.345      5490488.912
10 0 59809 24480.000000 0     -2473867.080      4766331.021      4569775.303
10 0 59809 24660.000000 0     -2526815.274      5591397.937      3481046.993
10 0 59809 24840.000000 0     -2468578.991      6212352.744      2264356.221
10 0 59809 25020.000000 0     -2307021.980      6603838.713       964465.964
10 0 59809 25200.000000 0     -2054354.213      6749240.122      -370837.883
10 0 59809 25380.000000 0     -1726433.781      6641393.275     -1692558.093
10 0 59809 25560.000000 0     -1341912.031      6282896.349     -2952346.544
10 0 59809 25740.000000 0      -921268.892      5685994.663     -4104309.042
10 0 59809 25920.000000 0      -485799.885      4872080.821     -5106672.519
10 0 59809 26100.000000 0       -56604.773      3870845.049     -5923263.230
10 0 59809 26280.000000 0       346377.394      2719123.884     -6524749.108
10 0 59809 26460.000000 0       705242.905      1459502.080     -6889611.857
10 0 59809 26640.000000 0      1004874.027       138735.884     -7004836.796
10 0 59809 26820.000000 0      1233543.274     -1193951.866     -6866321.513
10 0 59809 27000.000000 0      1383353.556     -2488654.433     -6478999.177
10 0 59809 27180.000000 0      1450505.480     -3696590.463     -5856685.250
10 0 59809 27360.000000 0      1435384.944     -4771906.717     -5021648.778
10 0 59809 27540.000000 0      1342465.838     -5673415.691     -4003893.749
10 0 59809 27720.000000 0      1180029.399     -6366205.607     -2840164.142
10 0 59809 27900.000000 0       959705.588     -6823058.828     -1572681.565
10 0 59809 28080.000000 0       695855.163     -7025605.332      -247644.989
10 0 59809 28260.000000 0       404815.147     -6965141.738      1086459.438
10 0 59809 28440.000000 0       104045.485     -6643063.417      2380668.320
10 0 59809 28620.000000 0      -188779.742     -6070877.129      3587396.298
10 0 59809 28800.000000 0      -456688.910     -5269777.940      4662244.903
10 0 59809 28980.000000 0      -684287.856     -4269822.557      5565674.317
10 0 59809 29160.000000 0      -858545.684     -3108745.906      6264477.984
10 0 59809 29340.000000 0      -969453.644     -1830474.099      6733001.118
10 0 59809 29520.000000 0     -1010527.080      -483413.879      6954059.334
10 0 59809 29700.000000 0      -979133.250       881411.750      6919550.714
10 0 59809 29880.000000 0      -876630.029      2212320.287      6630742.459
10 0 59809 30060.000000 0      -708306.735      3458947.297      6098225.884
10 0 59809 30240.000000 0      -483133.226      4574177.513      5341541.889
10 0 59809 30420.000000 0      -213326.495      5515963.080      4388483.856
10 0 59809 30600.000000 0        86249.314      6248961.087      3274090.703
10 0 59809 30780.000000 0       398822.297      6745917.798      2039361.726
10 0 59809 30960.000000 0       706560.890      6988745.214       729720.811
10 0 59809 31140.000000 0       991488.973      6969205.738      -606706.367
10 0 59809 31320.000000 0      1236415.796      6689182.910     -1920916.961
10 0 59809 31500.000000 0      1425827.750      6160527.377     -3164876.323
10 0 59809 31680.000000 0      1546698.877      5404495.753     -4293301.586
10 0 59809 31860.000000 0      1589182.302      4450816.190     -5265307.838
10 0 59809 32040.000000 0      1547149.421      3336439.495     -6045848.916
10 0 59809 32220.000000 0      1418554.821      2104050.536     -6606911.354
10 0 59809 32400.000000 0      1205615.579       800409.499     -6928435.236
10 0 59809 32580.000000 0       914804.241      -525406.497     -6998955.151
10 0 59809 32760.000000 0       556655.214     -1823809.352     -6815957.986
10 0 59809 32940.000000 0       145392.434     -3046496.182     -6385957.069
10 0 59809 33120.000000 0      -301611.490     -4148195.360     -5724294.489
10 0 59809 33300.000000 0      -764532.880     -5088321.377     -4854658.202
10 0 59809 33480.000000 0     -1221929.680     -5832483.256     -3808317.472
99
